*******************************************************************************
 Revised: Apr 03, 2024              134340 Pluto                            999
 
 Pre-computed solution PLU060/DE440. Fit to post New Horizons encounter and
 Gaia data through 2023. For discussion, see ...

 M. Brozovic, R. A. Jacobson (2024) "Post-New Horizons orbits and masses
 for the satellites of Pluto". AJ (in press)

 PHYSICAL DATA (updated 2021-Jun-07; Mc= Charon mass, radius is IAU 2015):
  Mass x10^22 (kg)      = 1.307+-0.018    Volume, 10^10 km^3    = 0.697
  GM (planet) km^3/s^2  = 869.326         Density (R=1195 km)   = 1.86 g/cm^3
  GM 1-sigma, km^3/s^2  = 0.4             Surface gravity       = 0.611 m/s^2 
  Vol. mean radius (km) = 1188.3+-1.6     Mass ratio (Mc/Mp)    = 0.122
  Sidereal rot. period  = 153.29335198 h  Sid. rot. rat, rad/s  = 0.0000113856
  Mean solar day, h     = 153.2820        Mean orbit velocity   = 4.67 km/s
  Sidereal orbit period = 249.58932 yr    Escape speed, km/s    = 1.21            
                                 Perihelion  Aphelion    Mean
  Solar Constant (W/m^2)         1.56        0.56        0.88
  Maximum Planetary IR (W/m^2)   0.8         0.3         0.5
  Minimum Planetary IR (W/m^2)   0.8         0.3         0.5
*******************************************************************************


*******************************************************************************
Ephemeris / WWW_USER Mon May 20 07:51:50 2024 Pasadena, USA      / Horizons    
*******************************************************************************
Target body name: Pluto (999)                     {source: plu060_merged}
Center body name: Sun (10)                        {source: plu060_merged}
Center-site name: BODYCENTRIC
*******************************************************************************
Start time      : A.D. 1880-Jan-01 00:00:00.0000 UT      
Stop  time      : A.D. 2199-Jul-01 00:00:00.0000 UT      
Step-size       : 1 calendar year
*******************************************************************************
Target pole/equ : IAU_PLUTO                       {East-longitude positive}
Target radii    : 1188.3, 1188.3, 1188.3 km       {Equator_a, b, pole_c}       
Center geodetic : 0.0, 0.0, -695700.0             {E-lon(deg),Lat(deg),Alt(km)}
Center cylindric: 0.0, 0.0, 0.0                   {E-lon(deg),Dxy(km),Dz(km)}
Center pole/equ : IAU_SUN                         {East-longitude positive}
Center radii    : 695700.0, 695700.0, 695700.0 km {Equator_a, b, pole_c}       
Target primary  : Sun
Vis. interferer : None
Rel. light bend : Sun                             {source: plu060_merged}
Rel. lght bnd GM: 1.3271E+11 km^3/s^2                                          
Atmos refraction: NO (AIRLESS)
RA format       : DEG
Time format     : CAL 
Calendar mode   : Mixed Julian/Gregorian
EOP file        : eop.240517.p240810                                           
EOP coverage    : DATA-BASED 1962-JAN-20 TO 2024-MAY-17. PREDICTS-> 2024-AUG-09
Units conversion: 1 au= 149597870.700 km, c= 299792.458 km/s, 1 day= 86400.0 s 
Table cut-offs 1: Elevation (-90.0deg=NO ),Airmass     n.a.    , Daylight (NO )
Table cut-offs 2: Solar elongation (  0.0,180.0=NO ),Local Hour Angle( 0.0=NO )
Table cut-offs 3: RA/DEC angular rate (     0.0=NO )                           
Table format    : Comma Separated Values (spreadsheet)
*******************************************************************************
 Date__(UT)__HR:MN, , , hEcl-Lon,hEcl-Lat,      PlAng,  Tru_Anom,  App_Lon_Sun,
*******************************************************************************
$$SOE
 2117-Jan-01 00:00, , ,  48.0403,-15.2658,   -0.00154,  183.6218,  187.4585749,
 2118-Jan-01 00:00, , ,  48.9683,-15.1396,   -0.00178,  184.2846,  188.3810844,
 2119-Jan-01 00:00, , ,  49.8967,-15.0099,   -0.00148,  184.5043,  189.2892438,
 2120-Jan-01 00:00, , ,  50.8248,-14.8767,   -0.00076,  185.0132,  190.1751422,
 2121-Jan-01 00:00, , ,  51.7544,-14.7397,    0.00016,  187.2226,  191.0382302,
 2122-Jan-01 00:00, , ,  52.6799,-14.5995,    0.00116,  189.0680,  191.9581046,
 2123-Jan-01 00:00, , ,  53.6040,-14.4555,    0.00199,  190.0978,  192.9004384,
 2124-Jan-01 00:00, , ,  54.5267,-14.3075,    0.00246,  190.1015,  193.8396770,
 2125-Jan-01 00:00, , ,  55.4514,-14.1550,    0.00246,  189.0342,  194.7132600,
 2126-Jan-01 00:00, , ,  56.3735,-13.9988,    0.00209,  190.0272,  195.5841080,
 2127-Jan-01 00:00, , ,  57.2966,-13.8385,    0.00146,  191.7226,  196.4828893,
 2128-Jan-01 00:00, , ,  58.2213,-13.6741,    0.00073,  193.5150,  197.4231919,
 2129-Jan-01 00:00, , ,  59.1510,-13.5052,    0.00012,  193.8087,  198.4216598,
 2130-Jan-01 00:00, , ,  60.0806,-13.3331,   -0.00012,  193.9240,  199.3222771,
 2131-Jan-01 00:00, , ,  61.0124,-13.1573,    0.00009,  194.7262,  200.1894584,
 2132-Jan-01 00:00, , ,  61.9456,-12.9781,    0.00063,  196.4099,  201.0640661,
 2133-Jan-01 00:00, , ,  62.8823,-12.7948,    0.00138,  199.4635,  202.0384208,
 2134-Jan-01 00:00, , ,  63.8167,-12.6082,    0.00209,  200.1598,  203.0315444,
 2135-Jan-01 00:00, , ,  64.7515,-12.4178,    0.00252,  199.7973,  203.9959375,
 2136-Jan-01 00:00, , ,  65.6869,-12.2234,    0.00255,  199.3077,  204.9049856,
 2137-Jan-01 00:00, , ,  66.6260,-12.0243,    0.00217,  200.3921,  205.7302209,
 2138-Jan-01 00:00, , ,  67.5643,-11.8216,    0.00145,  202.2418,  206.6863930,
 2139-Jan-01 00:00, , ,  68.5054,-11.6147,    0.00046,  203.8031,  207.6972601,
 2140-Jan-01 00:00, , ,  69.4501,-11.4036,   -0.00057,  204.4945,  208.7147049,
 2141-Jan-01 00:00, , ,  70.4018,-11.1877,   -0.00133,  203.3865,  209.6286950,
 2142-Jan-01 00:00, , ,  71.3555,-10.9685,   -0.00163,  204.7412,  210.5015141,
 2143-Jan-01 00:00, , ,  72.3138,-10.7455,   -0.00145,  207.1397,  211.4167036,
 2144-Jan-01 00:00, , ,  73.2759,-10.5187,   -0.00087,  209.7571,  212.4116733,
 2145-Jan-01 00:00, , ,  74.2437,-10.2875,   -0.00005,  210.7633,  213.5446371,
 2146-Jan-01 00:00, , ,  75.2116,-10.0531,    0.00074,  210.1950,  214.5273209,
 2147-Jan-01 00:00, , ,  76.1821, -9.8146,    0.00128,  209.9377,  215.4452417,
 2148-Jan-01 00:00, , ,  77.1552, -9.5720,    0.00149,  210.7711,  216.3531460,
 2149-Jan-01 00:00, , ,  78.1341, -9.3245,    0.00133,  214.0108,  217.3791342,
 2150-Jan-01 00:00, , ,  79.1142, -9.0733,    0.00084,  215.0764,  218.4799932,
 2151-Jan-01 00:00, , ,  80.0990, -8.8177,    0.00013,  215.0159,  219.5524117,
 2152-Jan-01 00:00, , ,  81.0894, -8.5577,   -0.00057,  214.6630,  220.5421641,
 2153-Jan-01 00:00, , ,  82.0891, -8.2926,   -0.00097,  215.7884,  221.3710805,
 2154-Jan-01 00:00, , ,  83.0930, -8.0240,   -0.00098,  218.7762,  222.3784487,
 2155-Jan-01 00:00, , ,  84.1039, -7.7513,   -0.00050,  221.5863,  223.4808341,
 2156-Jan-01 00:00, , ,  85.1210, -7.4744,    0.00034,  222.9368,  224.6261291,
 2157-Jan-01 00:00, , ,  86.1467, -7.1925,    0.00131,  220.9804,  225.6861969,
 2158-Jan-01 00:00, , ,  87.1748, -6.9073,    0.00210,  221.2823,  226.6430339,
 2159-Jan-01 00:00, , ,  88.2080, -6.6177,    0.00256,  222.8202,  227.6351702,
 2160-Jan-01 00:00, , ,  89.2464, -6.3237,    0.00263,  225.0348,  228.7262947,
 2161-Jan-01 00:00, , ,  90.2934, -6.0244,    0.00226,  226.3726,  230.0287391,
 2162-Jan-01 00:00, , ,  91.3440, -5.7212,    0.00144,  225.5207,  231.1553338,
 2163-Jan-01 00:00, , ,  92.4020, -5.4134,    0.00037,  225.0128,  232.1834424,
 2164-Jan-01 00:00, , ,  93.4686, -5.1010,   -0.00065,  226.0226,  233.1680277,
 2165-Jan-01 00:00, , ,  94.5479, -4.7831,   -0.00141,  230.5970,  234.2455595,
 2166-Jan-01 00:00, , ,  95.6346, -4.4615,   -0.00173,  233.1418,  235.4762768,
 2167-Jan-01 00:00, , ,  96.7319, -4.1353,   -0.00154,  234.0017,  236.7085467,
 2168-Jan-01 00:00, , ,  97.8394, -3.8047,   -0.00094,  233.6449,  237.8648362,
 2169-Jan-01 00:00, , ,  98.9597, -3.4687,   -0.00021,  233.7222,  238.8107708,
 2170-Jan-01 00:00, , , 100.0863, -3.1292,    0.00038,  236.2869,  239.9434756,
 2171-Jan-01 00:00, , , 101.2221, -2.7851,    0.00068,  238.8181,  241.1990657,
 2172-Jan-01 00:00, , , 102.3672, -2.4364,    0.00058,  240.0156,  242.5295134,
 2173-Jan-01 00:00, , , 103.5253, -2.0821,    0.00004,  237.5507,  243.8193183,
 2174-Jan-01 00:00, , , 104.6908, -1.7242,   -0.00081,  237.4703,  244.9289146,
 2175-Jan-01 00:00, , , 105.8680, -1.3618,   -0.00178,  239.2613,  246.0446169,
 2176-Jan-01 00:00, , , 107.0581, -0.9948,   -0.00264,  242.5532,  247.2571463,
 2177-Jan-01 00:00, , , 108.2659, -0.6223,   -0.00321,  245.9386,  248.7297548,
 2178-Jan-01 00:00, , , 109.4857, -0.2463,   -0.00314,  246.2488,  250.0583050,
 2179-Jan-01 00:00, , , 110.7212,  0.1341,   -0.00245,  246.2638,  251.2910055,
 2180-Jan-01 00:00, , , 111.9723,  0.5188,   -0.00136,  247.3062,  252.4687550,
 2181-Jan-01 00:00, , , 113.2422,  0.9087,   -0.00018,  251.9690,  253.6971276,
 2182-Jan-01 00:00, , , 114.5234,  1.3019,    0.00083,  254.3714,  255.1501467,
 2183-Jan-01 00:00, , , 115.8194,  1.6992,    0.00150,  254.7845,  256.6393309,
 2184-Jan-01 00:00, , , 117.1302,  2.1005,    0.00168,  253.7339,  258.0659433,
 2185-Jan-01 00:00, , , 118.4599,  2.5068,    0.00131,  252.6809,  259.2560817,
 2186-Jan-01 00:00, , , 119.8021,  2.9157,    0.00056,  255.1533,  260.5842391,
 2187-Jan-01 00:00, , , 121.1615,  3.3281,   -0.00038,  258.3209,  262.0356847,
 2188-Jan-01 00:00, , , 122.5396,  3.7438,   -0.00125,  260.6976,  263.5855925,
 2189-Jan-01 00:00, , , 123.9419,  4.1638,   -0.00178,  259.4073,  265.1656649,
 2190-Jan-01 00:00, , , 125.3621,  4.5856,   -0.00172,  260.0955,  266.5352666,
 2191-Jan-01 00:00, , , 126.8048,  5.0102,   -0.00113,  262.5268,  267.8989770,
 2192-Jan-01 00:00, , , 128.2704,  5.4374,   -0.00025,  266.2272,  269.3581070,
 2193-Jan-01 00:00, , , 129.7628,  5.8681,    0.00066,  270.0520,  271.0916154,
 2194-Jan-01 00:00, , , 131.2735,  6.2997,    0.00135,  269.9702,  272.7525111,
 2195-Jan-01 00:00, , , 132.8067,  6.7330,    0.00160,  269.1461,  274.3333297,
